[{"OBJECT_NAME":"STARLINK-6072","OBJECT_ID":"2023-078AR","EPOCH":"2026-03-09T21:53:39.802272","MEAN_MOTION":14.98338105,"ECCENTRICITY":0.00026964,"INCLINATION":69.9991,"RA_OF_ASC_NODE":303.7408,"ARG_OF_PERICENTER":256.3468,"MEAN_ANOMALY":103.7391,"EPHEMERIS_TYPE":0,"CLASSIFICATION_TYPE":"U","NORAD_CAT_ID":56806,"ELEMENT_SET_NO":999,"REV_AT_EPOCH":15368,"BSTAR":6.6292384e-5,"MEAN_MOTION_DOT":6.98e-6,"MEAN_MOTION_DDOT":0},{"OBJECT_NAME":"COSMOS 2221","OBJECT_ID":"1992-080A","EPOCH":"2026-03-09T23:19:19.777152","MEAN_MOTION":14.9620142,"ECCENTRICITY":0.00140703,"INCLINATION":82.5011,"RA_OF_ASC_NODE":278.8108,"ARG_OF_PERICENTER":186.0623,"MEAN_ANOMALY":174.0431,"EPHEMERIS_TYPE":0,"CLASSIFICATION_TYPE":"U","NORAD_CAT_ID":22236,"ELEMENT_SET_NO":999,"REV_AT_EPOCH":78083,"BSTAR":0.00019500053,"MEAN_MOTION_DOT":2.227e-5,"MEAN_MOTION_DDOT":0}]
